[{"OBJECT_NAME":"STARLINK-6233","OBJECT_ID":"2023-094M","EPOCH":"2026-03-09T22:00:01.999584","MEAN_MOTION":15.14468056,"ECCENTRICITY":4.951e-5,"INCLINATION":43.0008,"RA_OF_ASC_NODE":28.6996,"ARG_OF_PERICENTER":290.179,"MEAN_ANOMALY":255.2112,"EPHEMERIS_TYPE":0,"CLASSIFICATION_TYPE":"U","NORAD_CAT_ID":57229,"ELEMENT_SET_NO":999,"REV_AT_EPOCH":577,"BSTAR":0.0040861784,"MEAN_MOTION_DOT":0.00077118,"MEAN_MOTION_DDOT":0},{"OBJECT_NAME":"HAWK-12A","OBJECT_ID":"2025-138C","EPOCH":"2026-03-09T22:54:48.597696","MEAN_MOTION":15.17349329,"ECCENTRICITY":0.00159877,"INCLINATION":97.4429,"RA_OF_ASC_NODE":73.3872,"ARG_OF_PERICENTER":120.0729,"MEAN_ANOMALY":240.2092,"EPHEMERIS_TYPE":0,"CLASSIFICATION_TYPE":"U","NORAD_CAT_ID":64623,"ELEMENT_SET_NO":999,"REV_AT_EPOCH":3881,"BSTAR":0.00032645128,"MEAN_MOTION_DOT":6.47e-5,"MEAN_MOTION_DDOT":0}]
